CUTE-1 (CO-55)          
1 27844U 03031E   26063.50570256  .00000469  00000+0  22228-3 0  9996
2 27844  98.6779  73.3688 0010518 125.9821 234.2335 14.24261171176770
CUBESAT XI-IV (CO-57)   
1 27848U 03031J   26062.94998598  .00000409  00000+0  19861-3 0  9993
2 27848  98.6808  72.6171 0010137 144.0340 216.1522 14.23556668176405
CUBESAT XI-V            
1 28895U 05043F   26063.41486978  .00003252  00000+0  52204-3 0  9995
2 28895  98.2818 216.9395 0014429 174.0246 186.1135 14.72292579 86332
CUTE-1.7+APD II (CO-65) 
1 32785U 08021C   26063.60536738  .00009860  00000+0  63902-3 0  9996
2 32785  97.8202  42.9858 0010243  35.0259 325.1640 15.08285499969427
CANX-2                  
1 32790U 08021H   26063.38735730  .00008021  00000+0  57274-3 0  9993
2 32790  97.8559  41.2501 0012118  46.5631 313.6601 15.04729893969043
SEEDS II (CO-66)        
1 32791U 08021J   26063.55452727  .00027773  00000+0  99192-3 0  9995
2 32791  97.7508  56.7719 0002343  16.0958 344.0355 15.28814513971285
SWISSCUBE               
1 35932U 09051B   26063.27696313  .00001842  00000+0  37504-3 0  9997
2 35932  98.4104 329.3238 0006698 168.9600 191.1749 14.62242619873826
BEESAT-1                
1 35933U 09051C   26063.30148043  .00001553  00000+0  32294-3 0  9994
2 35933  98.4035 329.1997 0004935 179.8045 180.3159 14.61518970873860
ITUPSAT1                
1 35935U 09051E   26063.20104878  .00001429  00000+0  30617-3 0  9992
2 35935  98.4122 328.3978 0006899 195.9598 164.1386 14.60254871873411
TISAT 1                 
1 36799U 10035E   26063.31978079  .00035413  00000+0  13216-2 0  9994
2 36799  98.0651   0.9751 0000464 171.6015 188.5230 15.27318548851670
AEROCUBE 4.5A           
1 38767U 12048K   26063.34375215  .00122995  00000+0  13835-2 0  9992
2 38767  64.6383  38.6554 0041655 213.7694 146.0797 15.60877446356159
STRAND-1                
1 39090U 13009E   26063.48172039  .00000561  00000+0  20324-3 0  9990
2 39090  98.3882 246.3029 0008692 176.9706 183.1535 14.37089808682020
BRITE-AUSTRIA           
1 39091U 13009F   26063.45016346  .00000360  00000+0  13733-3 0  9999
2 39091  98.3950 245.4888 0010049 186.6674 173.4381 14.36492679682014
NEE-01 PEGASO           
1 39151U 13018B   26063.33880468  .00006434  00000+0  62273-3 0  9998
2 39151  98.1040 204.1687 0013634 145.6805 214.5297 14.93043968695059
POPACS 2                
1 39269U 13055E   26063.53201541  .00034793  00000+0  60813-3 0  9997
2 39269  80.9889 263.7071 0431725 169.3045 191.7734 14.87487546647631
POPACS 3                
1 39270U 13055F   26062.76175911  .00019038  00000+0  45830-3 0  9991
2 39270  81.0063 343.3222 0561427  30.7059 332.5744 14.53745697623223
ZACUBE-1 (TSHEPISOSAT)  
1 39417U 13066B   26063.46117096  .00008234  00000+0  65031-3 0  9995
2 39417  97.8184  25.2591 0041761 237.6358 122.0821 15.00261721665020
WNISAT-1                
1 39423U 13066H   26063.41466247  .00002726  00000+0  50436-3 0  9995
2 39423  97.7028 220.1086 0163198 201.4980 157.9315 14.57848583651463
TRITON-1                
1 39427U 13066M   26063.67202711  .00003510  00000+0  42785-3 0  9991
2 39427  97.8308 335.8786 0089781 214.1732 145.3683 14.81163400658619
GOMX-1                  
1 39430U 13066Q   26063.51224693  .00002114  00000+0  32364-3 0  9992
2 39430  97.6566 270.5404 0130527  53.9955 307.3270 14.69073011654544
CUBEBUG-2 (LO-74)       
1 39440U 13066AA  26063.40276022  .00010094  00000+0  94616-3 0  9998
2 39440  97.8814  12.0675 0059334  16.5737 343.7403 14.92877036661355
NEE-02 KRYSAOR          
1 39441U 13066AB  26063.26102974  .00004710  00000+0  52150-3 0  9992
2 39441  97.8816   3.3107 0068150  54.5044 306.2504 14.86119457660613
FUNCUBE-1 (AO-73)       
1 39444U 13066AE  26063.39850331  .00015175  00000+0  97977-3 0  9999
2 39444  97.8175  32.8468 0036706 197.5791 162.4169 15.07790976663864
UWE-3                   
1 39446U 13066AG  26063.31246538  .00008442  00000+0  73780-3 0  9996
2 39446  97.8594  18.8236 0048784 311.0025  48.6981 14.96105938661893
BRITE-CA1 (TORONTO)     
1 40020U 14033L   26063.32853596  .00001935  00000+0  29920-3 0  9997
2 40020  97.9558 194.3075 0077710 252.3100 106.9613 14.72445502626784
DUCHIFAT-1              
1 40021U 14033M   26063.33958146  .00090082  00000+0  16454-2 0  9994
2 40021  98.0635 109.1395 0006598  99.6030 260.5965 15.49057269639440
NANOSATC-BR1            
1 40024U 14033Q   26063.02340148  .00026861  00000+0  98782-3 0  9999
2 40024  98.0836  86.3172 0004002 164.1002 196.0362 15.27859132637908
QB50P1                  
1 40025U 14033R   26063.49721693  .00016603  00000+0  85697-3 0  9993
2 40025  98.0999  67.4292 0007791 214.5862 145.4863 15.16385168637156
QB50P2                  
1 40032U 14033Y   26063.50688547  .00012979  00000+0  72675-3 0  9997
2 40032  98.0728  54.0125 0008064 157.8005 202.3575 15.13550911636826
PERSEUS-M2              
1 40037U 14033AD  26063.60764873  .00004013  00000+0  37092-3 0  9994
2 40037  97.9867  12.1178 0010204 290.7557  69.2570 14.95130986635159
PERSEUS-M1              
1 40039U 14033AF  26063.38735027  .00004259  00000+0  39243-3 0  9992
2 40039  97.9554   5.8929 0009958 288.6088  71.4050 14.95221494634978
POLYITAN-1              
1 40042U 14033AJ  26063.50567694  .00032972  00000+0  11583-2 0  9992
2 40042  98.1045  80.1264 0008961 142.9202 217.2657 15.29286382637578
TIGRISAT                
1 40043U 14033AK  26063.46800355  .00003648  00000+0  42735-3 0  9994
2 40043  97.7659 215.9997 0050694  59.1928 301.4262 14.84695897630082
AEROCUBE 6A             
1 40045U 14033AM  26063.51594912  .00009302  00000+0  80553-3 0  9994
2 40045  97.7111 231.7294 0039262   6.9125 353.2630 14.96751947630952
AEROCUBE 6B             
1 40046U 14033AN  26063.41711144  .00012306  00000+0  10273-2 0  9991
2 40046  97.7112 231.2145 0037663   0.3211 359.8029 14.98140519631067
CANX-4                  
1 40055U 14034C   26063.50886398  .00001720  00000+0  22890-3 0  9993
2 40055  98.3285 294.8975 0012697 353.4453   6.6590 14.81047018629037
CANX-5                  
1 40056U 14034D   26063.57605542  .00001603  00000+0  21373-3 0  9996
2 40056  98.3287 295.0047 0012688 353.4130   6.6912 14.81063171619850
UKUBE-1                 
1 40074U 14037F   26063.52068777  .00015313  00000+0  90351-3 0  9992
2 40074  98.4226  55.9568 0002695 117.2804 242.8698 15.11654565632730
BRITE-PL2 (HEWELIUSZ)   
1 40119U 14049B   26063.24867769  .00004122  00000+0  38986-3 0  9994
2 40119  97.8982 174.5478 0015520  98.0873 262.2108 14.94147523625772
AEROCUBE 5C             
1 40965U 15058B   26063.47965294  .00006555  00000+0  57831-3 0  9993
2 40965  64.7664 228.1709 0130998 104.5633 257.0050 14.90801450350043
AEROCUBE 7              
1 40966U 15058C   26063.49918096  .00008689  00000+0  70061-3 0  9994
2 40966  64.7621 212.5003 0120950 103.6626 257.7989 14.94827005350305
FOX-1A (AO-85)          
1 40967U 15058D   26063.49254489  .00006177  00000+0  55561-3 0  9992
2 40967  64.7736 244.1769 0129159  98.0051 263.5740 14.90302456 97966
SINOD-D 1               
1 40968U 15058E   26062.88698986  .00008169  00000+0  66247-3 0  9995
2 40968  64.7742 228.4401 0117530  95.6175 265.8355 14.94968554100910
SNAP-3 ALICE            
1 40970U 15058G   26063.45573560  .00090561  00000+0  19788-2 0  9996
2 40970  64.7554 100.9678 0037442  70.9457 289.5730 15.42917466100646
LMRST-SAT               
1 40971U 15058H   26063.48880869  .00006107  00000+0  55195-3 0  9999
2 40971  64.7744 240.3323 0131306  99.9838 261.6121 14.89935508 97953
SNAP-3 EDDIE            
1 40972U 15058J   26063.45586503  .00084375  00000+0  17822-2 0  9992
2 40972  64.7478  92.3902 0038595  75.9267 284.6156 15.43895375102770
PROPCUBE 3              
1 40973U 15058K   26063.50904516  .00007880  00000+0  65598-3 0  9997
2 40973  64.7680 219.3940 0123842 101.7502 259.7536 14.93463826 99168
BISONSAT                
1 40974U 15058L   26063.47168729  .00019173  00000+0  98983-3 0  9994
2 40974  64.7606 151.5646 0079508  93.1632 267.8592 15.13639317 99754
SNAP-3 JIMI             
1 40975U 15058M   26063.50171341  .00011962  00000+0  83865-3 0  9994
2 40975  64.7661 190.6828 0105822  98.6934 262.6187 15.01043125 98504
PROPCUBE 1 (FLORA)      
1 40976U 15058N   26063.54975206  .00004822  00000+0  45597-3 0  9998
2 40976  64.7730 259.3814 0130435 102.2084 259.3670 14.88587720100687
SINOD-D 3               
1 40977U 15058P   26063.45418890  .00008415  00000+0  71387-3 0  9998
2 40977  64.7712 242.6535 0118848 100.3060 261.1478 14.93139115 99119
HORYU-4                 
1 41340U 16012D   26063.41986323  .00119691  00000+0  13090-2 0  9996
2 41340  30.9914 104.8433 0002167  94.2577 265.8323 15.61823751554285
RAVAN                   
1 41849U 16067B   26063.20616988  .00059799  00000+0  12348-2 0  9991
2 41849  98.0054 301.3560 0006900  23.8187 336.3378 15.45624462511432
CELTEE 1                
1 41850U 16067C   26063.54270901  .00009363  00000+0  45724-3 0  9998
2 41850  98.0821 282.9638 0000672 130.6555 229.4736 15.18510279509990
OPTICUBE 04             
1 41851U 16067D   26063.53733179  .00003584  00000+0  22956-3 0  9990
2 41851  98.0803 270.3167 0016994 110.1131 250.1926 15.09148302509385
AEROCUBE 8D             
1 41852U 16067E   26063.14265440  .00012915  00000+0  55601-3 0  9990
2 41852  98.0837 285.3504 0004474 125.5574 234.6079 15.22750960510073
AEROCUBE 8C             
1 41853U 16067F   26063.57806344  .00012162  00000+0  52014-3 0  9991
2 41853  98.0702 283.1851 0006658  68.0669 292.1273 15.22983419510137
CORVUS BC2              
1 42846U 17042X   26063.41052493  .00007489  00000+0  52284-3 0  9994
2 42846  97.3928 228.9523 0014261 110.0144 250.2621 15.05545343471296
CORVUS BC1              
1 42847U 17042Y   26063.41780098  .00005899  00000+0  41060-3 0  9997
2 42847  97.3955 229.7013 0013253  88.0691 272.2054 15.05759150471322
